0 COSMOS 2251 DEB
1 34682U 93036YC  13282.93563006  .00001239  00000-0  38550-3 0  1533
2 34682 074.0446 113.3188 0024706 271.4267 212.7257 14.41866328243539
0 COSMOS 2251 DEB
1 34682U 93036YC  13284.18311521  .00001398  00000-0  43392-3 0  1542
2 34682 074.0444 111.0077 0024698 268.9316 207.9481 14.41869590243714
0 COSMOS 2251 DEB
1 34682U 93036YC  13285.48419765  .00001192  00000-0  37102-3 0  1550
2 34682 074.0446 108.5978 0024692 266.4794 121.2383 14.41873246243907
0 COSMOS 2251 DEB
1 34682U 93036YC  13286.52535689  .00001288  00000-0  40031-3 0  1562
2 34682 074.0447 106.6691 0024686 264.3558 125.5689 14.41875620244058
0 COSMOS 2251 DEB
1 34682U 93036YC  13287.85037274  .00001750  00000-0  54095-3 0  1576
2 34682 074.0449 104.2144 0024662 261.6579 163.3195 14.41881447244241
0 COSMOS 2251 DEB
1 34682U 93036YC  13289.17945866  .00001813  00000-0  55990-3 0  1584
2 34682 074.0451 101.7524 0024684 258.9501 222.2249 14.41887791244430
0 COSMOS 2251 DEB
1 34682U 93036YC  13291.19010542  .00001791  00000-0  55316-3 0  1591
2 34682 074.0455 098.0278 0024703 254.9622 218.8597 14.41894092244721
0 COSMOS 2251 DEB
1 34682U 93036YC  13292.49746052  .00002021  00000-0  62295-3 0  1600
2 34682 074.0457 095.6061 0024639 252.3773 164.9492 14.41898246244914
0 COSMOS 2251 DEB
1 34682U 93036YC  13293.90476939  .00002280  00000-0  70177-3 0  1617
2 34682 074.0458 092.9992 0024665 249.6019 269.8869 14.41903708245115
0 COSMOS 2251 DEB
1 34682U 93036YC  13295.83007067  .00002502  00000-0  76915-3 0  1627
2 34682 074.0459 089.4327 0024675 245.8261 183.5996 14.41912200245386
